ONEWEB-0311             
1 49097U 21075Y   26062.39266278  .00000218  00000+0  52706-3 0  9996
2 49097  87.9148  26.8651 0001845  67.8293 292.3034 13.17650393219697
ONEWEB-0312             
1 49098U 21075Z   26062.40782885  .00000015  00000+0  49529-5 0  9992
2 49098  87.9139  26.8803 0002136  75.4134 284.7235 13.17649303219675
ONEWEB-0313             
1 49099U 21075AA  26062.41276105  .00000024  00000+0  28180-4 0  9996
2 49099  87.9138  26.8856 0001903  77.5279 282.6065 13.17648421219664
ONEWEB-0314             
1 49100U 21075AB  26062.45507824  .00000026  00000+0  33576-4 0  9995
2 49100  87.9149  26.8396 0002157  73.8135 286.3233 13.17649239219644
ONEWEB-0315             
1 49101U 21075AC  26062.39132328  .00000354  00000+0  94833-3 0  9998
2 49101  87.8997  11.6394 0001683  68.3499 291.7809 13.12441296221291
ONEWEB-0316             
1 49102U 21075AD  26062.31114583  .00000092  00000+0  20150-3 0  9994
2 49102  87.9241 356.4878 0001795  76.6265 283.5067 13.18684137223251
ONEWEB-0317             
1 49103U 21075AE  26062.39471713  .00000268  00000+0  70990-3 0  9996
2 49103  87.9000  11.6605 0002335  97.3964 262.7430 13.12441497221312
ONEWEB-0318             
1 49104U 21075AF  26062.30786038 -.00000885  00000+0 -22767-2 0  9992
2 49104  87.9251 356.4811 0001798  72.6723 287.4606 13.18689078223216
ONEWEB-0319             
1 49105U 21075AG  26062.39433266  .00000000  00000+0 -34040-4 0  9991
2 49105  87.9140  26.8772 0001636  64.4382 295.6918 13.17648760219673
ONEWEB-0323             
1 49106U 21075AH  26062.37607727  .00000358  00000+0  95922-3 0  9995
2 49106  87.8998  11.6464 0001960  60.2965 299.8358 13.12442330220671
ONEWEB-0329             
1 49107U 21075AJ  26062.40276299  .00000050  00000+0  96007-4 0  9991
2 49107  87.9138  26.8759 0001961  77.9415 282.1936 13.17648806219654
ONEWEB-0330             
1 49108U 21075AK  26062.40361774  .00000004  00000+0 -22470-4 0  9998
2 49108  87.9139  26.8834 0002127  80.5748 279.5624 13.17647786219698
ONEWEB-0292             
1 49186U 21083A   26062.27870654  .00000058  00000+0  12356-3 0  9999
2 49186  87.9031 341.3135 0001650  72.4242 287.7067 13.13472846217029
ONEWEB-0303             
1 49187U 21083B   26062.30457079  .00000064  00000+0  12962-3 0  9996
2 49187  87.9252 356.4837 0001790  72.9947 287.1381 13.18685992216028
ONEWEB-0306             
1 49188U 21083C   26062.37054902  .00000068  00000+0  13942-3 0  9995
2 49188  87.9250 356.4540 0001923  85.0186 275.1166 13.18686135216079
ONEWEB-0307             
1 49189U 21083D   26062.27277495 -.00000104  00000+0 -31968-3 0  9990
2 49189  87.9032 341.3037 0001782  77.9097 282.2232 13.13469525217022
ONEWEB-0320             
1 49190U 21083E   26062.30628291  .00000063  00000+0  12943-3 0  9994
2 49190  87.9239 356.4920 0001863  78.8811 281.2530 13.18131901216023
