[{"OBJECT_NAME":"ONEWEB-0311","OBJECT_ID":"2021-075Y","EPOCH":"2026-03-03T09:25:26.064192","MEAN_MOTION":13.17650393,"ECCENTRICITY":0.0001845,"INCLINATION":87.9148,"RA_OF_ASC_NODE":26.8651,"ARG_OF_PERICENTER":67.8293,"MEAN_ANOMALY":292.3034,"EPHEMERIS_TYPE":0,"CLASSIFICATION_TYPE":"U","NORAD_CAT_ID":49097,"ELEMENT_SET_NO":999,"REV_AT_EPOCH":21969,"BSTAR":0.00052706,"MEAN_MOTION_DOT":2.18e-6,"MEAN_MOTION_DDOT":0},{"OBJECT_NAME":"ONEWEB-0312","OBJECT_ID":"2021-075Z","EPOCH":"2026-03-03T09:47:16.412640","MEAN_MOTION":13.17649303,"ECCENTRICITY":0.0002136,"INCLINATION":87.9139,"RA_OF_ASC_NODE":26.8803,"ARG_OF_PERICENTER":75.4134,"MEAN_ANOMALY":284.7235,"EPHEMERIS_TYPE":0,"CLASSIFICATION_TYPE":"U","NORAD_CAT_ID":49098,"ELEMENT_SET_NO":999,"REV_AT_EPOCH":21967,"BSTAR":4.9529e-6,"MEAN_MOTION_DOT":1.5e-7,"MEAN_MOTION_DDOT":0},{"OBJECT_NAME":"ONEWEB-0313","OBJECT_ID":"2021-075AA","EPOCH":"2026-03-03T09:54:22.554720","MEAN_MOTION":13.17648421,"ECCENTRICITY":0.0001903,"INCLINATION":87.9138,"RA_OF_ASC_NODE":26.8856,"ARG_OF_PERICENTER":77.5279,"MEAN_ANOMALY":282.6065,"EPHEMERIS_TYPE":0,"CLASSIFICATION_TYPE":"U","NORAD_CAT_ID":49099,"ELEMENT_SET_NO":999,"REV_AT_EPOCH":21966,"BSTAR":2.818e-5,"MEAN_MOTION_DOT":2.4e-7,"MEAN_MOTION_DDOT":0},{"OBJECT_NAME":"ONEWEB-0314","OBJECT_ID":"2021-075AB","EPOCH":"2026-03-03T10:55:18.759936","MEAN_MOTION":13.17649239,"ECCENTRICITY":0.0002157,"INCLINATION":87.9149,"RA_OF_ASC_NODE":26.8396,"ARG_OF_PERICENTER":73.8135,"MEAN_ANOMALY":286.3233,"EPHEMERIS_TYPE":0,"CLASSIFICATION_TYPE":"U","NORAD_CAT_ID":49100,"ELEMENT_SET_NO":999,"REV_AT_EPOCH":21964,"BSTAR":3.3576e-5,"MEAN_MOTION_DOT":2.6e-7,"MEAN_MOTION_DDOT":0},{"OBJECT_NAME":"ONEWEB-0315","OBJECT_ID":"2021-075AC","EPOCH":"2026-03-03T09:23:30.331392","MEAN_MOTION":13.12441296,"ECCENTRICITY":0.0001683,"INCLINATION":87.8997,"RA_OF_ASC_NODE":11.6394,"ARG_OF_PERICENTER":68.3499,"MEAN_ANOMALY":291.7809,"EPHEMERIS_TYPE":0,"CLASSIFICATION_TYPE":"U","NORAD_CAT_ID":49101,"ELEMENT_SET_NO":999,"REV_AT_EPOCH":22129,"BSTAR":0.00094833,"MEAN_MOTION_DOT":3.54e-6,"MEAN_MOTION_DDOT":0},{"OBJECT_NAME":"ONEWEB-0316","OBJECT_ID":"2021-075AD","EPOCH":"2026-03-03T07:28:02.999712","MEAN_MOTION":13.18684137,"ECCENTRICITY":0.0001795,"INCLINATION":87.9241,"RA_OF_ASC_NODE":356.4878,"ARG_OF_PERICENTER":76.6265,"MEAN_ANOMALY":283.5067,"EPHEMERIS_TYPE":0,"CLASSIFICATION_TYPE":"U","NORAD_CAT_ID":49102,"ELEMENT_SET_NO":999,"REV_AT_EPOCH":22325,"BSTAR":0.0002015,"MEAN_MOTION_DOT":9.2e-7,"MEAN_MOTION_DDOT":0},{"OBJECT_NAME":"ONEWEB-0317","OBJECT_ID":"2021-075AE","EPOCH":"2026-03-03T09:28:23.560032","MEAN_MOTION":13.12441497,"ECCENTRICITY":0.0002335,"INCLINATION":87.9,"RA_OF_ASC_NODE":11.6605,"ARG_OF_PERICENTER":97.3964,"MEAN_ANOMALY":262.743,"EPHEMERIS_TYPE":0,"CLASSIFICATION_TYPE":"U","NORAD_CAT_ID":49103,"ELEMENT_SET_NO":999,"REV_AT_EPOCH":22131,"BSTAR":0.0007099,"MEAN_MOTION_DOT":2.68e-6,"MEAN_MOTION_DDOT":0},{"OBJECT_NAME":"ONEWEB-0318","OBJECT_ID":"2021-075AF","EPOCH":"2026-03-03T07:23:19.136832","MEAN_MOTION":13.18689078,"ECCENTRICITY":0.0001798,"INCLINATION":87.9251,"RA_OF_ASC_NODE":356.4811,"ARG_OF_PERICENTER":72.6723,"MEAN_ANOMALY":287.4606,"EPHEMERIS_TYPE":0,"CLASSIFICATION_TYPE":"U","NORAD_CAT_ID":49104,"ELEMENT_SET_NO":999,"REV_AT_EPOCH":22321,"BSTAR":-0.0022767,"MEAN_MOTION_DOT":-8.85e-6,"MEAN_MOTION_DDOT":0},{"OBJECT_NAME":"ONEWEB-0319","OBJECT_ID":"2021-075AG","EPOCH":"2026-03-03T09:27:50.341824","MEAN_MOTION":13.1764876,"ECCENTRICITY":0.0001636,"INCLINATION":87.914,"RA_OF_ASC_NODE":26.8772,"ARG_OF_PERICENTER":64.4382,"MEAN_ANOMALY":295.6918,"EPHEMERIS_TYPE":0,"CLASSIFICATION_TYPE":"U","NORAD_CAT_ID":49105,"ELEMENT_SET_NO":999,"REV_AT_EPOCH":21967,"BSTAR":-3.404e-5,"MEAN_MOTION_DOT":0,"MEAN_MOTION_DDOT":0},{"OBJECT_NAME":"ONEWEB-0323","OBJECT_ID":"2021-075AH","EPOCH":"2026-03-03T09:01:33.076128","MEAN_MOTION":13.1244233,"ECCENTRICITY":0.000196,"INCLINATION":87.8998,"RA_OF_ASC_NODE":11.6464,"ARG_OF_PERICENTER":60.2965,"MEAN_ANOMALY":299.8358,"EPHEMERIS_TYPE":0,"CLASSIFICATION_TYPE":"U","NORAD_CAT_ID":49106,"ELEMENT_SET_NO":999,"REV_AT_EPOCH":22067,"BSTAR":0.00095922,"MEAN_MOTION_DOT":3.58e-6,"MEAN_MOTION_DDOT":0},{"OBJECT_NAME":"ONEWEB-0329","OBJECT_ID":"2021-075AJ","EPOCH":"2026-03-03T09:39:58.722336","MEAN_MOTION":13.17648806,"ECCENTRICITY":0.0001961,"INCLINATION":87.9138,"RA_OF_ASC_NODE":26.8759,"ARG_OF_PERICENTER":77.9415,"MEAN_ANOMALY":282.1936,"EPHEMERIS_TYPE":0,"CLASSIFICATION_TYPE":"U","NORAD_CAT_ID":49107,"ELEMENT_SET_NO":999,"REV_AT_EPOCH":21965,"BSTAR":9.6007e-5,"MEAN_MOTION_DOT":5.0e-7,"MEAN_MOTION_DDOT":0},{"OBJECT_NAME":"ONEWEB-0330","OBJECT_ID":"2021-075AK","EPOCH":"2026-03-03T09:41:12.572736","MEAN_MOTION":13.17647786,"ECCENTRICITY":0.0002127,"INCLINATION":87.9139,"RA_OF_ASC_NODE":26.8834,"ARG_OF_PERICENTER":80.5748,"MEAN_ANOMALY":279.5624,"EPHEMERIS_TYPE":0,"CLASSIFICATION_TYPE":"U","NORAD_CAT_ID":49108,"ELEMENT_SET_NO":999,"REV_AT_EPOCH":21969,"BSTAR":-2.247e-5,"MEAN_MOTION_DOT":4.0e-8,"MEAN_MOTION_DDOT":0},{"OBJECT_NAME":"ONEWEB-0292","OBJECT_ID":"2021-083A","EPOCH":"2026-03-03T06:41:20.245056","MEAN_MOTION":13.13472846,"ECCENTRICITY":0.000165,"INCLINATION":87.9031,"RA_OF_ASC_NODE":341.3135,"ARG_OF_PERICENTER":72.4242,"MEAN_ANOMALY":287.7067,"EPHEMERIS_TYPE":0,"CLASSIFICATION_TYPE":"U","NORAD_CAT_ID":49186,"ELEMENT_SET_NO":999,"REV_AT_EPOCH":21702,"BSTAR":0.00012356,"MEAN_MOTION_DOT":5.8e-7,"MEAN_MOTION_DDOT":0},{"OBJECT_NAME":"ONEWEB-0303","OBJECT_ID":"2021-083B","EPOCH":"2026-03-03T07:18:34.916256","MEAN_MOTION":13.18685992,"ECCENTRICITY":0.000179,"INCLINATION":87.9252,"RA_OF_ASC_NODE":356.4837,"ARG_OF_PERICENTER":72.9947,"MEAN_ANOMALY":287.1381,"EPHEMERIS_TYPE":0,"CLASSIFICATION_TYPE":"U","NORAD_CAT_ID":49187,"ELEMENT_SET_NO":999,"REV_AT_EPOCH":21602,"BSTAR":0.00012962,"MEAN_MOTION_DOT":6.4e-7,"MEAN_MOTION_DDOT":0},{"OBJECT_NAME":"ONEWEB-0306","OBJECT_ID":"2021-083C","EPOCH":"2026-03-03T08:53:35.435328","MEAN_MOTION":13.18686135,"ECCENTRICITY":0.0001923,"INCLINATION":87.925,"RA_OF_ASC_NODE":356.454,"ARG_OF_PERICENTER":85.0186,"MEAN_ANOMALY":275.1166,"EPHEMERIS_TYPE":0,"CLASSIFICATION_TYPE":"U","NORAD_CAT_ID":49188,"ELEMENT_SET_NO":999,"REV_AT_EPOCH":21607,"BSTAR":0.00013942,"MEAN_MOTION_DOT":6.8e-7,"MEAN_MOTION_DDOT":0},{"OBJECT_NAME":"ONEWEB-0307","OBJECT_ID":"2021-083D","EPOCH":"2026-03-03T06:32:47.755680","MEAN_MOTION":13.13469525,"ECCENTRICITY":0.0001782,"INCLINATION":87.9032,"RA_OF_ASC_NODE":341.3037,"ARG_OF_PERICENTER":77.9097,"MEAN_ANOMALY":282.2232,"EPHEMERIS_TYPE":0,"CLASSIFICATION_TYPE":"U","NORAD_CAT_ID":49189,"ELEMENT_SET_NO":999,"REV_AT_EPOCH":21702,"BSTAR":-0.00031968,"MEAN_MOTION_DOT":-1.04e-6,"MEAN_MOTION_DDOT":0},{"OBJECT_NAME":"ONEWEB-0320","OBJECT_ID":"2021-083E","EPOCH":"2026-03-03T07:21:02.843424","MEAN_MOTION":13.18131901,"ECCENTRICITY":0.0001863,"INCLINATION":87.9239,"RA_OF_ASC_NODE":356.492,"ARG_OF_PERICENTER":78.8811,"MEAN_ANOMALY":281.253,"EPHEMERIS_TYPE":0,"CLASSIFICATION_TYPE":"U","NORAD_CAT_ID":49190,"ELEMENT_SET_NO":999,"REV_AT_EPOCH":21602,"BSTAR":0.00012943,"MEAN_MOTION_DOT":6.3e-7,"MEAN_MOTION_DDOT":0}]
